[{"OBJECT_NAME":"OBJECT L","OBJECT_ID":"2023-085L","EPOCH":"2026-03-09T23:02:21.999840","MEAN_MOTION":15.29079976,"ECCENTRICITY":0.0005428,"INCLINATION":97.486,"RA_OF_ASC_NODE":178.8598,"ARG_OF_PERICENTER":50.8528,"MEAN_ANOMALY":309.3193,"EPHEMERIS_TYPE":0,"CLASSIFICATION_TYPE":"U","NORAD_CAT_ID":57014,"ELEMENT_SET_NO":999,"REV_AT_EPOCH":15144,"BSTAR":0.00063462603,"MEAN_MOTION_DOT":0.00017871,"MEAN_MOTION_DDOT":0},{"OBJECT_NAME":"STARLINK-34080","OBJECT_ID":"2025-110W","EPOCH":"2026-03-09T03:47:36.322656","MEAN_MOTION":15.30152732,"ECCENTRICITY":0.00011788,"INCLINATION":53.1613,"RA_OF_ASC_NODE":29.0457,"ARG_OF_PERICENTER":71.3532,"MEAN_ANOMALY":288.7597,"EPHEMERIS_TYPE":0,"CLASSIFICATION_TYPE":"U","NORAD_CAT_ID":64116,"ELEMENT_SET_NO":999,"REV_AT_EPOCH":4579,"BSTAR":0.00034707027,"MEAN_MOTION_DOT":9.919e-5,"MEAN_MOTION_DDOT":0}]
